{
    "links": {
        "self": "http://www.neowsapp.com/rest/v1/neo/3798980?api_key=iIulBulltgU6a56xZRHN4H3l9WmuAYTsLGpBGhQ2"
    },
    "id": "3798980",
    "neo_reference_id": "3798980",
    "name": "(2018 BS6)",
    "designation": "2018 BS6",
    "nasa_jpl_url": "http://ssd.jpl.nasa.gov/sbdb.cgi?sstr=3798980",
    "absolute_magnitude_h": 24.9,
    "estimated_diameter": {
        "kilometers": {
            "estimated_diameter_min": 0.0278326768,
            "estimated_diameter_max": 0.0622357573
        },
        "meters": {
            "estimated_diameter_min": 27.8326768072,
            "estimated_diameter_max": 62.2357573367
        },
        "miles": {
            "estimated_diameter_min": 0.0172944182,
            "estimated_diameter_max": 0.0386714948
        },
        "feet": {
            "estimated_diameter_min": 91.3145593761,
            "estimated_diameter_max": 204.1855621004
        }
    },
    "is_potentially_hazardous_asteroid": false,
    "close_approach_data": [
        {
            "close_approach_date": "2018-01-28",
            "close_approach_date_full": "2018-Jan-28 08:15",
            "epoch_date_close_approach": 1517127300000,
            "relative_velocity": {
                "kilometers_per_second": "11.0149387174",
                "kilometers_per_hour": "39653.7793826267",
                "miles_per_hour": "24639.3164169438"
            },
            "miss_distance": {
                "astronomical": "0.0185428848",
                "lunar": "7.2131821872",
                "kilometers": "2773976.069735376",
                "miles": "1723668.8021491488"
            },
            "orbiting_body": "Earth"
        },
        {
            "close_approach_date": "2018-07-21",
            "close_approach_date_full": "2018-Jul-21 06:07",
            "epoch_date_close_approach": 1532153220000,
            "relative_velocity": {
                "kilometers_per_second": "8.9548804459",
                "kilometers_per_hour": "32237.5696052609",
                "miles_per_hour": "20031.1720694467"
            },
            "miss_distance": {
                "astronomical": "0.384988258",
                "lunar": "149.760432362",
                "kilometers": "57593423.37181046",
                "miles": "35786893.822925948"
            },
            "orbiting_body": "Earth"
        },
        {
            "close_approach_date": "2024-04-02",
            "close_approach_date_full": "2024-Apr-02 12:40",
            "epoch_date_close_approach": 1712061600000,
            "relative_velocity": {
                "kilometers_per_second": "9.5247482569",
                "kilometers_per_hour": "34289.0937247105",
                "miles_per_hour": "21305.9093757791"
            },
            "miss_distance": {
                "astronomical": "0.0488703441",
                "lunar": "19.0105638549",
                "kilometers": "7310899.383527067",
                "miles": "4542782.2253128446"
            },
            "orbiting_body": "Mars"
        },
        {
            "close_approach_date": "2025-06-20",
            "close_approach_date_full": "2025-Jun-20 20:12",
            "epoch_date_close_approach": 1750450320000,
            "relative_velocity": {
                "kilometers_per_second": "10.2688273315",
                "kilometers_per_hour": "36967.7783932902",
                "miles_per_hour": "22970.3398577641"
            },
            "miss_distance": {
                "astronomical": "0.1979804998",
                "lunar": "77.0144144222",
                "kilometers": "29617461.071615426",
                "miles": "18403436.9311918388"
            },
            "orbiting_body": "Earth"
        },
        {
            "close_approach_date": "2029-11-22",
            "close_approach_date_full": "2029-Nov-22 01:21",
            "epoch_date_close_approach": 1890004860000,
            "relative_velocity": {
                "kilometers_per_second": "10.5774620272",
                "kilometers_per_hour": "38078.8632977515",
                "miles_per_hour": "23660.724808539"
            },
            "miss_distance": {
                "astronomical": "0.0385892773",
                "lunar": "15.0112288697",
                "kilometers": "5772873.688919351",
                "miles": "3587097.3743790038"
            },
            "orbiting_body": "Mars"
        }
    ],
    "orbital_data": {
        "orbit_id": "3",
        "orbit_determination_date": "2018-02-19 06:21:20",
        "first_observation_date": "2018-01-27",
        "last_observation_date": "2018-01-30",
        "data_arc_in_days": 3,
        "observations_used": 36,
        "orbit_uncertainty": "8",
        "minimum_orbit_intersection": ".00692287",
        "jupiter_tisserand_invariant": "5.036",
        "epoch_osculation": "2458147.5",
        "eccentricity": ".2929288195401315",
        "semi_major_axis": "1.261844354413972",
        "inclination": "14.41783501326058",
        "ascending_node_longitude": "128.2888811041097",
        "orbital_period": "517.7345054337831",
        "perihelion_distance": ".8922137772321078",
        "perihelion_argument": "56.77166527039389",
        "aphelion_distance": "1.631474931595836",
        "perihelion_time": "2458192.081990229958",
        "mean_anomaly": "329.0004890260544",
        "mean_motion": ".6953370814996666",
        "equinox": "J2000",
        "orbit_class": {
            "orbit_class_type": "APO",
            "orbit_class_description": "Near-Earth asteroid orbits which cross the Earth’s orbit similar to that of 1862 Apollo",
            "orbit_class_range": "a (semi-major axis) > 1.0 AU; q (perihelion) < 1.017 AU"
        }
    },
    "is_sentry_object": false
}